{"type":"FeatureCollection","features":[{"type":"Feature","properties":{"id":"11110530"},"geometry":{"type":"MultiPolygon","coordinates":[[[[126.97689,37.57565],[126.97703,37.56919],[126.97597,37.56934],[126.97537,37.56932],[126.97433,37.56926],[126.96905,37.56819],[126.96854,37.56843],[126.96665,37.56949],[126.96628,37.5697],[126.9661,37.56986],[126.96573,37.57018],[126.96593,37.57032],[126.96601,37.57155],[126.96366,37.57517],[126.96309,37.57649],[126.96284,37.57666],[126.96281,37.57945],[126.96742,37.5796],[126.96742,37.57926],[126.96746,37.57898],[126.96807,37.57825],[126.96896,37.57794],[126.96921,37.57794],[126.96941,37.57812],[126.96966,37.57853],[126.96967,37.57874],[126.96967,37.57899],[126.96967,37.57911],[126.9699,37.5793],[126.97135,37.57951],[126.97382,37.57937],[126.97392,37.57849],[126.97394,37.57824],[126.97433,37.57575],[126.9758,37.57565],[126.97689,37.57565]]]]}},{"type":"Feature","properties":{"id":"11110540"},"geometry":{"type":"MultiPolygon","coordinates":[[[[126.98269,37.59507],[126.98337,37.59435],[126.98387,37.59385],[126.98401,37.59376],[126.98427,37.59358],[126.98468,37.59333],[126.98523,37.59306],[126.98533,37.59301],[126.98576,37.59279],[126.98648,37.59251],[126.98753,37.59225],[126.98876,37.5921],[126.98911,37.59195],[126.98948,37.5918],[126.98908,37.59139],[126.9879,37.59056],[126.98621,37.58902],[126.98601,37.5882],[126.98601,37.58802],[126.98596,37.58742],[126.98579,37.58708],[126.98534,37.58615],[126.98497,37.58563],[126.98447,37.58537],[126.98371,37.58497],[126.98292,37.58346],[126.98285,37.58323],[126.98284,37.58285],[126.98284,37.58272],[126.98286,37.58261],[126.98299,37.58206],[126.98403,37.57843],[126.98464,37.57734],[126.98553,37.57667],[126.98495,37.57634],[126.98434,37.57606],[126.98315,37.57553],[126.97984,37.57594],[126.97959,37.57598],[126.97961,37.57661],[126.97962,37.57716],[126.97969,37.57861],[126.97974,37.57913],[126.98003,37.58009],[126.9803,37.58099],[126.97942,37.5859],[126.97897,37.58718],[126.97888,37.58727],[126.97657,37.5893],[126.97615,37.58955],[126.97569,37.58968],[126.97364,37.59259],[126.97359,37.59329],[126.97585,37.59656],[126.98106,37.59507],[126.98269,37.59507]]]]}},{"type":"Feature","properties":{"id":"11110615"},"geometry":{"type":"MultiPolygon","coordinates":[[[[126.9965,37.58102],[126.99641,37.58065],[126.99661,37.57935],[126.99676,37.57842],[126.99718,37.57693],[126.99968,37.5759],[126.99938,37.57584],[126.99797,37.5743],[126.99799,37.57403],[126.99806,37.57378],[127.00047,37.57075],[127.00083,37.57039],[127.0009,37.57032],[127.00162,37.56959],[126.99835,37.56895],[126.99792,37.56889],[126.99698,37.56875],[126.9968,37.56872],[126.9967,37.56871],[126.99087,37.56824],[126.99059,37.56822],[126.98952,37.56815],[126.9889,37.56811],[126.98686,37.5682],[126.9866,37.56821],[126.98572,37.56838],[126.98442,37.56862],[126.98397,37.56869],[126.98273,37.56889],[126.9778,37.56925],[126.97758,37.56924],[126.97703,37.56919],[126.97689,37.57565],[126.97959,37.57598],[126.97984,37.57594],[126.98315,37.57553],[126.98434,37.57606],[126.98495,37.57634],[126.98553,37.57667],[126.98824,37.57737],[126.98897,37.57737],[126.9893,37.57739],[126.98977,37.58225],[126.98939,37.5837],[126.98886,37.5855],[126.98803,37.58555],[126.98831,37.58747],[126.98843,37.58742],[126.9893,37.58728],[126.9913,37.58707],[126.99229,37.5872],[126.99329,37.58693],[126.99587,37.58351],[126.99603,37.58329],[126.99627,37.58271],[126.99654,37.58157],[126.9965,37.58102]]]]}},{"type":"Feature","properties":{"id":"11140550"},"geometry":{"type":"MultiPolygon","coordinates":[[[[126.97703,37.56919],[126.97758,37.56924],[126.9778,37.56925],[126.98269,37.56889],[126.98397,37.56869],[126.98442,37.56862],[126.98572,37.56838],[126.9866,37.56821],[126.98679,37.5682],[126.9889,37.56811],[126.98952,37.56815],[126.99059,37.56822],[126.99087,37.56824],[126.99083,37.56683],[126.9906,37.56618],[126.98976,37.56613],[126.98859,37.56525],[126.98851,37.56474],[126.98851,37.56458],[126.98858,37.56358],[126.98876,37.56291],[126.98941,37.56287],[126.98989,37.56288],[126.99032,37.56296],[126.99034,37.56278],[126.99048,37.56162],[126.99049,37.56151],[126.99052,37.5612],[126.98854,37.56039],[126.98738,37.55839],[126.98692,37.55745],[126.98677,37.55732],[126.98582,37.55676],[126.98542,37.55664],[126.98509,37.55658],[126.98486,37.5563],[126.98476,37.55616],[126.98476,37.55589],[126.98479,37.5558],[126.98486,37.55561],[126.98536,37.55424],[126.98501,37.55417],[126.98384,37.55396],[126.98358,37.5542],[126.98345,37.5547],[126.98343,37.55511],[126.98339,37.55575],[126.98337,37.55605],[126.98328,37.55729],[126.98325,37.55751],[126.98323,37.55766],[126.98315,37.55795],[126.98307,37.55816],[126.98286,37.55867],[126.98274,37.55896],[126.98263,37.5592],[126.98252,37.55945],[126.98236,37.55981],[126.98228,37.55998],[126.98223,37.56009],[126.98126,37.56126],[126.98109,37.5618],[126.98141,37.56216],[126.98204,37.56296],[126.98228,37.56367],[126.98241,37.56407],[126.98263,37.56558],[126.98264,37.5659],[126.98059,37.56595],[126.97972,37.56588],[126.97835,37.56544],[126.97564,37.56776],[126.97529,37.56866],[126.97537,37.56932],[126.97597,37.56934],[126.97703,37.56919]]]]}},{"type":"Feature","properties":{"id":"11140605"},"geometry":{"type":"MultiPolygon","coordinates":[[[[126.99347,37.563],[126.99143,37.5633],[126.99032,37.56296],[126.98989,37.56288],[126.98941,37.56287],[126.98876,37.56291],[126.98858,37.56358],[126.98851,37.56458],[126.98851,37.56474],[126.98859,37.56525],[126.98976,37.56613],[126.9906,37.56618],[126.99083,37.56683],[126.99087,37.56824],[126.9967,37.56871],[126.9968,37.56872],[126.99698,37.56875],[126.99792,37.56889],[126.9983,37.56894],[127.00162,37.56959],[127.00668,37.56965],[127.00546,37.56931],[127.00499,37.56882],[127.00416,37.56676],[127.00404,37.56655],[127.0038,37.56616],[127.00359,37.56582],[127.00348,37.56565],[127.00323,37.56529],[127.00274,37.56549],[127.00153,37.56588],[126.99982,37.56581],[126.99677,37.56566],[126.99589,37.56547],[126.99505,37.56509],[126.99347,37.563]]]]}},{"type":"Feature","properties":{"id":"11140670"},"geometry":{"type":"MultiPolygon","coordinates":[[[[127.02362,37.56517],[127.02059,37.56576],[127.01807,37.56557],[127.0177,37.56999],[127.01751,37.57029],[127.01882,37.57098],[127.02337,37.57174],[127.0236,37.5658],[127.02362,37.56517]]]]}},{"type":"Feature","properties":{"id":"11170520"},"geometry":{"type":"MultiPolygon","coordinates":[[[[126.99236,37.55009],[126.99319,37.54906],[126.99142,37.54783],[126.99095,37.54637],[126.99035,37.54543],[126.98918,37.5437],[126.98856,37.54305],[126.98847,37.5428],[126.98843,37.54271],[126.9884,37.54263],[126.98697,37.5389],[126.98683,37.53837],[126.9868,37.53827],[126.98679,37.53746],[126.98695,37.53568],[126.98738,37.53444],[126.98781,37.53428],[126.98789,37.53438],[126.98797,37.53431],[126.98809,37.53421],[126.98822,37.53411],[126.98829,37.53405],[126.98846,37.53391],[126.98853,37.53384],[126.98861,37.53376],[126.98875,37.5336],[126.98892,37.53339],[126.98899,37.5333],[126.98936,37.53277],[126.98945,37.53262],[126.98955,37.53246],[126.98971,37.5322],[126.98982,37.53201],[126.98998,37.53181],[126.99057,37.53101],[126.99085,37.53066],[126.99105,37.53036],[126.99112,37.53026],[126.99136,37.52991],[126.99133,37.52947],[126.99167,37.52722],[126.98659,37.52711],[126.97977,37.52608],[126.9806,37.53471],[126.97912,37.5441],[126.97851,37.54604],[126.98361,37.54651],[126.9838,37.54653],[126.98399,37.54663],[126.98603,37.54785],[126.98737,37.5495],[126.98781,37.55149],[126.99236,37.55009]]]]}},{"type":"Feature","properties":{"id":"11170650"},"geometry":{"type":"MultiPolygon","coordinates":[[[[126.99787,37.53261],[126.9948,37.52873],[126.99133,37.52947],[126.99136,37.52991],[126.99112,37.53026],[126.99105,37.53036],[126.99085,37.53066],[126.99057,37.53101],[126.98998,37.53181],[126.98982,37.53201],[126.98971,37.5322],[126.98955,37.53246],[126.98945,37.53262],[126.98936,37.53277],[126.98899,37.5333],[126.98892,37.53339],[126.98878,37.53357],[126.98861,37.53376],[126.98853,37.53384],[126.98846,37.53391],[126.98835,37.53401],[126.98822,37.53411],[126.98809,37.53421],[126.98797,37.53431],[126.98789,37.53438],[126.98976,37.53565],[126.99456,37.53835],[126.9951,37.5387],[126.99534,37.53897],[126.99512,37.53822],[126.99704,37.53335],[126.99787,37.53261]]]]}},{"type":"Feature","properties":{"id":"11170625"},"geometry":{"type":"MultiPolygon","coordinates":[[[[126.9806,37.53471],[126.97977,37.52608],[126.97623,37.52179],[126.97263,37.52292],[126.97252,37.52296],[126.97206,37.52304],[126.97018,37.52287],[126.96989,37.52283],[126.96967,37.5228],[126.96936,37.52275],[126.96786,37.52246],[126.96701,37.52229],[126.96633,37.52216],[126.96589,37.5221],[126.96549,37.52205],[126.96538,37.52204],[126.96514,37.52201],[126.96457,37.52199],[126.96444,37.52199],[126.96397,37.52202],[126.96379,37.52204],[126.96325,37.52217],[126.96221,37.52244],[126.96182,37.5226],[126.96114,37.52289],[126.96043,37.52324],[126.9602,37.52335],[126.95933,37.52386],[126.95796,37.5247],[126.95753,37.52497],[126.9572,37.52524],[126.95701,37.5254],[126.95689,37.52551],[126.95666,37.52572],[126.95545,37.52697],[126.95461,37.53153],[126.95484,37.53164],[126.95511,37.53176],[126.95667,37.53244],[126.95741,37.53274],[126.95874,37.53312],[126.95961,37.53331],[126.96142,37.53316],[126.96159,37.53315],[126.96325,37.53412],[126.96333,37.53417],[126.96357,37.53428],[126.96378,37.53433],[126.96474,37.53453],[126.96488,37.53455],[126.96496,37.53455],[126.96505,37.53455],[126.96603,37.53432],[126.96638,37.53423],[126.9667,37.53406],[126.9668,37.53381],[126.9688,37.53402],[126.96919,37.53415],[126.96946,37.53431],[126.97027,37.53554],[126.97049,37.53599],[126.97062,37.53627],[126.97077,37.53668],[126.97086,37.53824],[126.97086,37.53893],[126.97086,37.53914],[126.97156,37.53935],[126.97321,37.54032],[126.97338,37.53982],[126.97386,37.53798],[126.97391,37.53777],[126.97507,37.53537],[126.97613,37.53457],[126.97878,37.53468],[126.9806,37.53471]]]]}},{"type":"Feature","properties":{"id":"11170685"},"geometry":{"type":"MultiPolygon","coordinates":[[[[127.00531,37.54771],[127.00484,37.54618],[127.00726,37.54381],[127.00861,37.54398],[127.00858,37.54389],[127.00843,37.54286],[127.00834,37.54186],[127.00932,37.53968],[127.00947,37.53958],[127.00993,37.53937],[127.01153,37.53898],[127.01176,37.53904],[127.01213,37.53915],[127.01289,37.53931],[127.01479,37.5389],[127.01576,37.53831],[127.01719,37.53742],[127.02092,37.53512],[127.02018,37.53464],[127.02006,37.53456],[127.01951,37.53411],[127.01822,37.53302],[127.01704,37.53203],[127.01637,37.53147],[127.01546,37.5307],[127.01261,37.52831],[127.01187,37.52784],[127.00797,37.52459],[127.0073,37.52514],[127.00479,37.52673],[127.00423,37.52699],[127.00389,37.52717],[127.00285,37.52814],[127.00289,37.52838],[127.00316,37.52883],[127.00338,37.52907],[127.00345,37.52914],[127.00369,37.52927],[127.00373,37.52947],[127.0036,37.52993],[127.00354,37.53001],[127.00332,37.53019],[127.00299,37.53042],[127.00092,37.53167],[126.9981,37.53264],[126.99787,37.53261],[126.99704,37.53335],[126.99512,37.53822],[126.99534,37.53897],[126.99534,37.53917],[126.99537,37.53932],[126.9954,37.5394],[126.99552,37.53962],[126.99566,37.53971],[126.99586,37.53984],[126.9965,37.54027],[126.99694,37.54054],[126.99734,37.54072],[126.99754,37.5409],[126.99778,37.54122],[126.99784,37.54182],[126.99786,37.54222],[126.99651,37.54602],[126.99532,37.54724],[126.99774,37.54936],[126.99852,37.54993],[126.99886,37.54991],[126.9991,37.54989],[126.99937,37.54979],[126.99981,37.54962],[126.99995,37.54956],[127.00022,37.54951],[127.00268,37.5496],[127.00389,37.5502],[127.00423,37.55038],[127.0044,37.54966],[127.00438,37.54956],[127.00439,37.54919],[127.00447,37.54897],[127.00463,37.54856],[127.00472,37.54835],[127.00532,37.5483],[127.00542,37.54829],[127.00554,37.54827],[127.00574,37.54823],[127.00589,37.5482],[127.00531,37.54781],[127.00531,37.54771]]]]}},{"type":"Feature","properties":{"id":"11200690"},"geometry":{"type":"MultiPolygon","coordinates":[[[[127.0675,37.54831],[127.06394,37.54215],[127.06283,37.54019],[127.05188,37.54347],[127.04958,37.54417],[127.05218,37.55084],[127.05458,37.55009],[127.05609,37.54949],[127.05643,37.54936],[127.05669,37.54926],[127.05726,37.54905],[127.05737,37.54901],[127.05829,37.54875],[127.05865,37.54865],[127.05925,37.54851],[127.06004,37.54833],[127.06113,37.54821],[127.06206,37.54812],[127.06225,37.5481],[127.06311,37.54809],[127.06659,37.54826],[127.0675,37.54831]]]]}},{"type":"Feature","properties":{"id":"11215710"},"geometry":{"type":"MultiPolygon","coordinates":[[[[127.07406,37.54734],[127.07702,37.54602],[127.07728,37.54592],[127.07832,37.54567],[127.07879,37.54557],[127.07948,37.54543],[127.07992,37.54538],[127.08,37.54538],[127.0805,37.54535],[127.08085,37.54533],[127.08161,37.5453],[127.08238,37.54497],[127.08192,37.54409],[127.08177,37.54381],[127.08151,37.54333],[127.08137,37.54312],[127.0813,37.5429],[127.08128,37.54281],[127.08128,37.54267],[127.08128,37.54216],[127.0814,37.54202],[127.08247,37.5415],[127.08293,37.54137],[127.08229,37.54004],[127.07995,37.539],[127.07894,37.53893],[127.07848,37.53902],[127.07678,37.53921],[127.07526,37.53933],[127.07514,37.53871],[127.07327,37.53907],[127.07055,37.53983],[127.06394,37.54215],[127.0675,37.54831],[127.0717,37.54788],[127.07406,37.54734]]]]}},{"type":"Feature","properties":{"id":"11440660"},"geometry":{"type":"MultiPolygon","coordinates":[[[[126.91353,37.54948],[126.91166,37.55422],[126.9088,37.55742],[126.90909,37.55766],[126.91023,37.55793],[126.91065,37.55803],[126.91201,37.55826],[126.91311,37.55824],[126.91513,37.55823],[126.91536,37.55823],[126.91576,37.55825],[126.91617,37.5583],[126.91624,37.55832],[126.91643,37.55837],[126.91665,37.55846],[126.91701,37.5586],[126.9176,37.55884],[126.91783,37.55859],[126.91878,37.55754],[126.92161,37.55947],[126.92625,37.56122],[126.92714,37.56175],[126.92668,37.56058],[126.92649,37.5592],[126.92663,37.55883],[126.92686,37.55874],[126.92701,37.55867],[126.92712,37.55863],[126.93,37.55756],[126.93511,37.55567],[126.93644,37.5552],[126.93673,37.55511],[126.93687,37.5551],[126.93408,37.55342],[126.93094,37.55471],[126.92931,37.55415],[126.92552,37.55333],[126.92504,37.55317],[126.92422,37.55239],[126.92411,37.55226],[126.92407,37.55212],[126.92409,37.55189],[126.92421,37.55155],[126.92425,37.55112],[126.92424,37.55093],[126.92387,37.55064],[126.92185,37.5491],[126.92115,37.5487],[126.9203,37.54831],[126.91938,37.54838],[126.91874,37.54843],[126.91834,37.54851],[126.91806,37.54856],[126.917,37.54878],[126.91655,37.54887],[126.91509,37.54918],[126.9148,37.54941],[126.91459,37.5496],[126.91439,37.54977],[126.91562,37.5507],[126.91556,37.55076],[126.91541,37.55088],[126.91526,37.55077],[126.9144,37.55015],[126.91353,37.54948]]]]}},{"type":"Feature","properties":{"id":"11440690"},"geometry":{"type":"MultiPolygon","coordinates":[[[[126.9088,37.55742],[126.91166,37.55422],[126.90984,37.55366],[126.90284,37.55146],[126.90106,37.54998],[126.899,37.54792],[126.89063,37.55117],[126.89179,37.55344],[126.89441,37.55754],[126.89687,37.55536],[126.89994,37.55633],[126.90819,37.55805],[126.9088,37.55742]]]]}},{"type":"Feature","properties":{"id":"11440710"},"geometry":{"type":"MultiPolygon","coordinates":[[[[126.9272,37.56183],[126.92714,37.56175],[126.92625,37.56122],[126.92161,37.55947],[126.91878,37.55754],[126.91783,37.55859],[126.9176,37.55884],[126.91791,37.55929],[126.91795,37.55941],[126.91815,37.56053],[126.91811,37.56098],[126.91786,37.56184],[126.91758,37.5625],[126.91739,37.56253],[126.91715,37.56336],[126.91709,37.56357],[126.91695,37.56444],[126.91682,37.56556],[126.91666,37.56694],[126.91774,37.56744],[126.92474,37.56573],[126.92513,37.56556],[126.92569,37.56529],[126.92582,37.56522],[126.92596,37.56514],[126.92614,37.56503],[126.9263,37.56492],[126.92682,37.56452],[126.92696,37.56442],[126.92825,37.56334],[126.92815,37.5632],[126.92748,37.56223],[126.9272,37.56183]]]]}},{"type":"Feature","properties":{"id":"11560605"},"geometry":{"type":"MultiPolygon","coordinates":[[[[126.89225,37.52074],[126.89862,37.5197],[126.89969,37.51949],[126.90029,37.51936],[126.90046,37.51932],[126.90059,37.51928],[126.9011,37.51904],[126.90115,37.51887],[126.90128,37.51846],[126.90143,37.51802],[126.90192,37.51669],[126.90201,37.51647],[126.90211,37.51623],[126.90218,37.51612],[126.90236,37.51582],[126.90253,37.5156],[126.90289,37.51526],[126.90298,37.51522],[126.90316,37.51512],[126.90342,37.51501],[126.90379,37.51494],[126.904,37.51464],[126.90364,37.51447],[126.90243,37.51395],[126.901,37.51334],[126.89995,37.51289],[126.89976,37.51281],[126.89783,37.51198],[126.89786,37.51187],[126.89816,37.51145],[126.89297,37.50946],[126.89175,37.50987],[126.89122,37.51066],[126.8909,37.51108],[126.89079,37.5112],[126.89068,37.51133],[126.89045,37.51156],[126.89029,37.51167],[126.88963,37.51209],[126.88852,37.51266],[126.88173,37.51582],[126.87947,37.51677],[126.87981,37.52138],[126.8818,37.52107],[126.8834,37.52082],[126.88374,37.52077],[126.88501,37.52059],[126.8852,37.52137],[126.88536,37.52179],[126.88999,37.52103],[126.89105,37.52084],[126.89225,37.52074]]]]}},{"type":"Feature","properties":{"id":"11620585"},"geometry":{"type":"MultiPolygon","coordinates":[[[[126.95277,37.48129],[126.96231,37.47759],[126.96201,37.47709],[126.96152,37.47624],[126.96139,37.47535],[126.96164,37.47483],[126.96188,37.47455],[126.96244,37.47373],[126.96332,37.47185],[126.96338,37.47168],[126.96338,37.47147],[126.96334,37.47124],[126.96328,37.47099],[126.96288,37.47011],[126.9628,37.46998],[126.96269,37.46978],[126.9627,37.46969],[126.96278,37.46964],[126.96283,37.46954],[126.96289,37.46945],[126.96298,37.46934],[126.96302,37.46927],[126.96306,37.46919],[126.9631,37.46908],[126.96314,37.46899],[126.96318,37.46892],[126.96323,37.46881],[126.96327,37.46873],[126.96333,37.46865],[126.96339,37.46859],[126.96352,37.46852],[126.96366,37.46843],[126.96373,37.46836],[126.96406,37.46793],[126.96414,37.46784],[126.96447,37.4676],[126.96453,37.46756],[126.9653,37.46531],[126.96572,37.46432],[126.96677,37.46348],[126.96729,37.46321],[126.9678,37.46294],[126.97013,37.46127],[126.9703,37.46094],[126.96983,37.46],[126.96959,37.45954],[126.96943,37.45932],[126.96934,37.45925],[126.96896,37.45904],[126.96882,37.45899],[126.9687,37.45895],[126.96639,37.45638],[126.96634,37.4563],[126.96572,37.45503],[126.96329,37.45518],[126.96155,37.45555],[126.9596,37.45684],[126.95823,37.45783],[126.95767,37.45853],[126.95747,37.45888],[126.95565,37.46212],[126.9555,37.46257],[126.9557,37.46434],[126.95596,37.46527],[126.95564,37.46611],[126.9535,37.47081],[126.95333,37.47096],[126.95314,37.47103],[126.95253,37.4711],[126.95292,37.47211],[126.95297,37.47229],[126.95311,37.47281],[126.95311,37.47326],[126.9531,37.47347],[126.95255,37.48046],[126.95226,37.48135],[126.95277,37.48129]]]]}},{"type":"Feature","properties":{"id":"11680510"},"geometry":{"type":"MultiPolygon","coordinates":[[[[127.02808,37.51958],[127.02721,37.51927],[127.02526,37.51856],[127.02117,37.51682],[127.01944,37.51599],[127.01948,37.51634],[127.01903,37.51824],[127.01892,37.51857],[127.01828,37.52052],[127.01798,37.5213],[127.01761,37.52209],[127.0172,37.5227],[127.01707,37.52289],[127.01661,37.52338],[127.0146,37.52551],[127.01187,37.52784],[127.01261,37.52831],[127.01546,37.5307],[127.01637,37.53147],[127.01704,37.53203],[127.01822,37.53302],[127.01951,37.53411],[127.02006,37.53456],[127.02018,37.53464],[127.02092,37.53512],[127.02156,37.53553],[127.02424,37.53166],[127.02436,37.5315],[127.02442,37.5314],[127.02524,37.53024],[127.0257,37.52979],[127.02618,37.52932],[127.02659,37.52897],[127.02687,37.52874],[127.02741,37.5283],[127.028,37.52777],[127.02831,37.52729],[127.02834,37.52721],[127.02856,37.52731],[127.02862,37.52661],[127.02859,37.52594],[127.02856,37.52555],[127.02837,37.52458],[127.02825,37.52257],[127.02817,37.52134],[127.02816,37.52113],[127.02808,37.51958]]]]}},{"type":"Feature","properties":{"id":"11680640"},"geometry":{"type":"MultiPolygon","coordinates":[[[[127.04718,37.50397],[127.04277,37.50262],[127.0384,37.50128],[127.03704,37.50062],[127.03846,37.49753],[127.04089,37.49241],[127.03162,37.48954],[127.02764,37.49796],[127.02649,37.50037],[127.0245,37.50452],[127.03389,37.50739],[127.04377,37.51026],[127.04418,37.5092],[127.04487,37.50848],[127.04566,37.50792],[127.04573,37.50787],[127.04641,37.50745],[127.04687,37.50716],[127.04699,37.50709],[127.04728,37.50691],[127.04777,37.50659],[127.04814,37.50621],[127.04826,37.50598],[127.04868,37.50514],[127.04893,37.50463],[127.04718,37.50397]]]]}},{"type":"Feature","properties":{"id":"11680545"},"geometry":{"type":"MultiPolygon","coordinates":[[[[127.04667,37.534],[127.044,37.52757],[127.04379,37.52705],[127.04182,37.52752],[127.0412,37.52768],[127.0408,37.52779],[127.04018,37.52642],[127.03954,37.52464],[127.03933,37.52404],[127.03912,37.52347],[127.03913,37.52319],[127.03913,37.52308],[127.03918,37.52291],[127.03906,37.52293],[127.03884,37.52298],[127.03826,37.5228],[127.03741,37.52254],[127.03387,37.52142],[127.03279,37.52108],[127.03052,37.52036],[127.02808,37.51958],[127.02816,37.52113],[127.02817,37.52134],[127.02825,37.52257],[127.02837,37.52458],[127.02856,37.52555],[127.02859,37.52594],[127.02862,37.52661],[127.02856,37.52731],[127.02834,37.52721],[127.02831,37.52729],[127.028,37.52777],[127.02741,37.5283],[127.02687,37.52874],[127.02659,37.52897],[127.02618,37.52932],[127.0257,37.52979],[127.02524,37.53024],[127.02442,37.5314],[127.02436,37.5315],[127.02424,37.53166],[127.02156,37.53553],[127.0359,37.53584],[127.04031,37.5359],[127.04667,37.534]]]]}},{"type":"Feature","properties":{"id":"11710580"},"geometry":{"type":"MultiPolygon","coordinates":[[[[127.11666,37.50776],[127.11513,37.50532],[127.11476,37.50476],[127.11413,37.50408],[127.11381,37.50376],[127.11351,37.50354],[127.11322,37.50333],[127.11306,37.50322],[127.11261,37.50294],[127.11198,37.50264],[127.11144,37.50241],[127.11133,37.50237],[127.11114,37.50231],[127.11067,37.50216],[127.11015,37.50199],[127.1057,37.50651],[127.10403,37.50875],[127.10464,37.50924],[127.10809,37.51198],[127.11016,37.51118],[127.11116,37.51079],[127.11225,37.51036],[127.11535,37.50853],[127.11666,37.50776]]]]}}]}